{
  "norad_id": 68431,
  "name": "TRANSPORTER-16 OBJECT R",
  "history": [
    {
      "epoch": "2026-04-14T03:14:00.050784Z",
      "apogee_km": 512.8302869441604,
      "perigee_km": 510.0945648041352,
      "latitude_deg": 4.162872226549279e-05,
      "longitude_deg": 172.7603806669013,
      "height_km": 515.8254695009858,
      "semi_major_axis_km": 6889.5994258741475,
      "eccentricity": 0.00019854,
      "inclination_deg": 97.4549,
      "raan_deg": 63.5761,
      "arg_perigee_deg": 159.0525,
      "mean_anomaly_deg": 201.0791,
      "mean_motion_rev_day": 15.18139933
    }
  ]
}