TRANSPORTER-16 OBJECT R 
1 68431U 26067R   26104.13472281  .00004701  00000+0  23359-3 0  9990
2 68431  97.4549  63.5761 0001985 159.0525 201.0791 15.18139933  2229
